{
  "type": "FeatureCollection",
  "features": [
    {
      "type": "Feature",
      "properties": {
        "norad_id": 64903,
        "name": "CO3D 1",
        "group": "resource",
        "lat": 2.7296761195579737,
        "lon": -108.87999231380311,
        "alt_km": 508.1099073639325,
        "timestamp": "2025-12-20T14:38:01.616596+00:00",
        "meta_object_name": "CO3D 1",
        "meta_object_id": "2025-156E",
        "meta_epoch": "2025-12-20T05:57:30.239424",
        "meta_mean_motion": 15.20195514,
        "meta_eccentricity": 9.267e-05,
        "meta_inclination": 97.4345,
        "meta_ra_of_asc_node": 70.407,
        "meta_arg_of_pericenter": 75.5131,
        "meta_mean_anomaly": 284.6207,
        "meta_ephemeris_type": 0,
        "meta_classification_type": "U",
        "meta_norad_cat_id": 64903,
        "meta_element_set_no": 999,
        "meta_rev_at_epoch": 2234,
        "meta_bstar": 0.00018326379,
        "meta_mean_motion_dot": 3.901e-05,
        "meta_mean_motion_ddot": 0,
        "tle_line1": "1 64903U 25156E   25354.24826666  .00003901  00000+0  18326-3 0  9995",
        "tle_line2": "2 64903  97.4345  70.4070 0000926  75.5131 284.6207 15.20195514 22346"
      },
      "geometry": {
        "type": "Point",
        "coordinates": [
          -108.87999231380311,
          2.7296761195579737
        ]
      }
    },
    {
      "type": "Feature",
      "properties": {
        "norad_id": 66514,
        "name": "SENTINEL-6B",
        "group": "resource",
        "lat": 34.318566054092614,
        "lon": 163.74822931128287,
        "alt_km": 1336.345348438037,
        "timestamp": "2025-12-20T14:38:01.616606+00:00",
        "meta_object_name": "SENTINEL-6B",
        "meta_object_id": "2025-264A",
        "meta_epoch": "2025-12-12T06:01:21.428544",
        "meta_mean_motion": 12.81479578,
        "meta_eccentricity": 0.00078482,
        "meta_inclination": 66.0385,
        "meta_ra_of_asc_node": 163.4531,
        "meta_arg_of_pericenter": 270.1376,
        "meta_mean_anomaly": 89.874,
        "meta_ephemeris_type": 0,
        "meta_classification_type": "U",
        "meta_norad_cat_id": 66514,
        "meta_element_set_no": 999,
        "meta_rev_at_epoch": 322,
        "meta_bstar": 0.00018573353,
        "meta_mean_motion_dot": -1.8e-07,
        "meta_mean_motion_ddot": 0,
        "tle_line1": "1 66514U 25264A   25346.25094246 -.00000018  00000+0  18573-3 0  9999",
        "tle_line2": "2 66514  66.0385 163.4531 0007848 270.1376  89.8740 12.81479578  3223"
      },
      "geometry": {
        "type": "Point",
        "coordinates": [
          163.74822931128287,
          34.318566054092614
        ]
      }
    }
  ]
}